{
    "links": {
        "self": "http://www.neowsapp.com/rest/v1/neo/3604235?api_key=iIulBulltgU6a56xZRHN4H3l9WmuAYTsLGpBGhQ2"
    },
    "id": "3604235",
    "neo_reference_id": "3604235",
    "name": "(2012 KX)",
    "designation": "2012 KX",
    "nasa_jpl_url": "http://ssd.jpl.nasa.gov/sbdb.cgi?sstr=3604235",
    "absolute_magnitude_h": 23.5,
    "estimated_diameter": {
        "kilometers": {
            "estimated_diameter_min": 0.0530340723,
            "estimated_diameter_max": 0.1185877909
        },
        "meters": {
            "estimated_diameter_min": 53.0340723319,
            "estimated_diameter_max": 118.5877908577
        },
        "miles": {
            "estimated_diameter_min": 0.0329538346,
            "estimated_diameter_max": 0.0736870142
        },
        "feet": {
            "estimated_diameter_min": 173.9963058693,
            "estimated_diameter_max": 389.0675677576
        }
    },
    "is_potentially_hazardous_asteroid": false,
    "close_approach_data": [
        {
            "close_approach_date": "2012-01-29",
            "close_approach_date_full": "2012-Jan-29 10:32",
            "epoch_date_close_approach": 1327833120000,
            "relative_velocity": {
                "kilometers_per_second": "13.3678468188",
                "kilometers_per_hour": "48124.2485478388",
                "miles_per_hour": "29902.5365490724"
            },
            "miss_distance": {
                "astronomical": "0.0195483363",
                "lunar": "7.6043028207",
                "kilometers": "2924389.472523681",
                "miles": "1817131.3567255578"
            },
            "orbiting_body": "Mars"
        },
        {
            "close_approach_date": "2012-05-26",
            "close_approach_date_full": "2012-May-26 02:11",
            "epoch_date_close_approach": 1337998260000,
            "relative_velocity": {
                "kilometers_per_second": "7.0926586939",
                "kilometers_per_hour": "25533.5712980203",
                "miles_per_hour": "15865.5682323727"
            },
            "miss_distance": {
                "astronomical": "0.056820697",
                "lunar": "22.103251133",
                "kilometers": "8500255.24311539",
                "miles": "5281813.687116782"
            },
            "orbiting_body": "Earth"
        },
        {
            "close_approach_date": "2070-04-15",
            "close_approach_date_full": "2070-Apr-15 08:57",
            "epoch_date_close_approach": 3164777820000,
            "relative_velocity": {
                "kilometers_per_second": "15.6531436167",
                "kilometers_per_hour": "56351.3170202788",
                "miles_per_hour": "35014.5169562949"
            },
            "miss_distance": {
                "astronomical": "0.4032795068",
                "lunar": "156.8757281452",
                "kilometers": "60329755.231930516",
                "miles": "37487171.5978764808"
            },
            "orbiting_body": "Earth"
        },
        {
            "close_approach_date": "2084-01-07",
            "close_approach_date_full": "2084-Jan-07 08:22",
            "epoch_date_close_approach": 3598071720000,
            "relative_velocity": {
                "kilometers_per_second": "4.0815887459",
                "kilometers_per_hour": "14693.7194853351",
                "miles_per_hour": "9130.1058657628"
            },
            "miss_distance": {
                "astronomical": "1.4846478563",
                "lunar": "577.5280161007",
                "kilometers": "222100157.002546081",
                "miles": "138006638.1085386778"
            },
            "orbiting_body": "Juptr"
        },
        {
            "close_approach_date": "2095-12-07",
            "close_approach_date_full": "2095-Dec-07 15:00",
            "epoch_date_close_approach": 3974108400000,
            "relative_velocity": {
                "kilometers_per_second": "4.0707161958",
                "kilometers_per_hour": "14654.578304728",
                "miles_per_hour": "9105.7850582906"
            },
            "miss_distance": {
                "astronomical": "1.5247143507",
                "lunar": "593.1138824223",
                "kilometers": "228094019.223153009",
                "miles": "141731051.3890851642"
            },
            "orbiting_body": "Juptr"
        }
    ],
    "orbital_data": {
        "orbit_id": "29",
        "orbit_determination_date": "2017-04-06 08:49:48",
        "first_observation_date": "2012-05-16",
        "last_observation_date": "2012-06-27",
        "data_arc_in_days": 42,
        "observations_used": 175,
        "orbit_uncertainty": "6",
        "minimum_orbit_intersection": ".0583697",
        "jupiter_tisserand_invariant": "3.251",
        "epoch_osculation": "2459000.5",
        "eccentricity": ".5686168795665042",
        "semi_major_axis": "2.450462909881681",
        "inclination": "3.230126511931362",
        "ascending_node_longitude": "102.3929399175721",
        "orbital_period": "1401.104819708927",
        "perihelion_distance": "1.057088336571304",
        "perihelion_argument": "136.1547336362159",
        "aphelion_distance": "3.843837483192057",
        "perihelion_time": "2458869.973338530199",
        "mean_anomaly": "33.53753228747751",
        "mean_motion": ".2569400910881089",
        "equinox": "J2000",
        "orbit_class": {
            "orbit_class_type": "AMO",
            "orbit_class_description": "Near-Earth asteroid orbits similar to that of 1221 Amor",
            "orbit_class_range": "1.017 AU < q (perihelion) < 1.3 AU"
        }
    },
    "is_sentry_object": false
}